CCSDS_OMM_VERS = 2.0
CREATION_DATE  = 
ORIGINATOR     = 

OBJECT_NAME    = YOTSUBA-KULOVER
OBJECT_ID      = 1998-067XN
CENTER_NAME    = EARTH
REF_FRAME      = TEME
TIME_SYSTEM    = UTC
MEAN_ELEMENT_THEORY = SGP/SGP4

EPOCH          = 2026-03-10T08:06:34.184160
MEAN_MOTION    = 15.80840191
ECCENTRICITY   = .0005411
INCLINATION    = 51.6217
RA_OF_ASC_NODE = 53.9301
ARG_OF_PERICENTER = 71.4420
MEAN_ANOMALY   = 288.7169

EPHEMERIS_TYPE = 0
CLASSIFICATION_TYPE = U
NORAD_CAT_ID   = 65941
ELEMENT_SET_NO = 999
REV_AT_EPOCH   = 2360
BSTAR          = .13058E-2
MEAN_MOTION_DOT = .265347E-2
MEAN_MOTION_DDOT = 0

CCSDS_OMM_VERS = 2.0
CREATION_DATE  = 
ORIGINATOR     = 

OBJECT_NAME    = E-KAGAKU-1
OBJECT_ID      = 1998-067XQ
CENTER_NAME    = EARTH
REF_FRAME      = TEME
TIME_SYSTEM    = UTC
MEAN_ELEMENT_THEORY = SGP/SGP4

EPOCH          = 2026-03-10T08:13:11.790048
MEAN_MOTION    = 15.80477598
ECCENTRICITY   = .0005844
INCLINATION    = 51.6235
RA_OF_ASC_NODE = 53.9788
ARG_OF_PERICENTER = 78.4136
MEAN_ANOMALY   = 281.7521

EPHEMERIS_TYPE = 0
CLASSIFICATION_TYPE = U
NORAD_CAT_ID   = 65943
ELEMENT_SET_NO = 999
REV_AT_EPOCH   = 2360
BSTAR          = .12629E-2
MEAN_MOTION_DOT = .251985E-2
MEAN_MOTION_DDOT = 0

CCSDS_OMM_VERS = 2.0
CREATION_DATE  = 
ORIGINATOR     = 

OBJECT_NAME    = HRC MONOBLOCK CAMERA
OBJECT_ID      = 1998-067XR
CENTER_NAME    = EARTH
REF_FRAME      = TEME
TIME_SYSTEM    = UTC
MEAN_ELEMENT_THEORY = SGP/SGP4

EPOCH          = 2026-03-10T03:33:19.033344
MEAN_MOTION    = 15.62255862
ECCENTRICITY   = .00036679
INCLINATION    = 51.6279
RA_OF_ASC_NODE = 63.2192
ARG_OF_PERICENTER = 93.4712
MEAN_ANOMALY   = 266.6702

EPHEMERIS_TYPE = 0
CLASSIFICATION_TYPE = U
NORAD_CAT_ID   = 66052
ELEMENT_SET_NO = 999
REV_AT_EPOCH   = 2246
BSTAR          = .71498668E-3
MEAN_MOTION_DOT = .64288E-3
MEAN_MOTION_DDOT = 0

CCSDS_OMM_VERS = 2.0
CREATION_DATE  = 
ORIGINATOR     = 

OBJECT_NAME    = HTV-X1
OBJECT_ID      = 2025-241A
CENTER_NAME    = EARTH
REF_FRAME      = TEME
TIME_SYSTEM    = UTC
MEAN_ELEMENT_THEORY = SGP/SGP4

EPOCH          = 2026-03-10T03:48:27.801504
MEAN_MOTION    = 15.48557200
ECCENTRICITY   = .00079716
INCLINATION    = 51.6324
RA_OF_ASC_NODE = 70.0375
ARG_OF_PERICENTER = 176.2903
MEAN_ANOMALY   = 183.8146

EPHEMERIS_TYPE = 0
CLASSIFICATION_TYPE = U
NORAD_CAT_ID   = 66174
ELEMENT_SET_NO = 999
REV_AT_EPOCH   = 55447
BSTAR          = .17625562E-3
MEAN_MOTION_DOT = .913E-4
MEAN_MOTION_DDOT = 0

CCSDS_OMM_VERS = 2.0
CREATION_DATE  = 
ORIGINATOR     = 

OBJECT_NAME    = SZ-21 MODULE
OBJECT_ID      = 2025-246C
CENTER_NAME    = EARTH
REF_FRAME      = TEME
TIME_SYSTEM    = UTC
MEAN_ELEMENT_THEORY = SGP/SGP4

EPOCH          = 2026-03-10T09:24:12.314880
MEAN_MOTION    = 15.68612654
ECCENTRICITY   = .0001321
INCLINATION    = 41.4733
RA_OF_ASC_NODE = 199.0379
ARG_OF_PERICENTER = 300.4317
MEAN_ANOMALY   = 59.6394

EPHEMERIS_TYPE = 0
CLASSIFICATION_TYPE = U
NORAD_CAT_ID   = 66515
ELEMENT_SET_NO = 999
REV_AT_EPOCH   = 1818
BSTAR          = .39495E-3
MEAN_MOTION_DOT = .46134E-3
MEAN_MOTION_DDOT = 0

CCSDS_OMM_VERS = 2.0
CREATION_DATE  = 
ORIGINATOR     = 

OBJECT_NAME    = SHENZHOU-22
OBJECT_ID      = 2025-272A
CENTER_NAME    = EARTH
REF_FRAME      = TEME
TIME_SYSTEM    = UTC
MEAN_ELEMENT_THEORY = SGP/SGP4

EPOCH          = 2026-03-10T19:16:55.378272
MEAN_MOTION    = 15.60727089
ECCENTRICITY   = .0006965
INCLINATION    = 41.4661
RA_OF_ASC_NODE = 201.3850
ARG_OF_PERICENTER = 279.9751
MEAN_ANOMALY   = 80.0301

EPHEMERIS_TYPE = 0
CLASSIFICATION_TYPE = U
NORAD_CAT_ID   = 66645
ELEMENT_SET_NO = 999
REV_AT_EPOCH   = 26946
BSTAR          = .36544E-3
MEAN_MOTION_DOT = .3107E-3
MEAN_MOTION_DDOT = 0

CCSDS_OMM_VERS = 2.0
CREATION_DATE  = 
ORIGINATOR     = 

OBJECT_NAME    = SOYUZ-MS 28
OBJECT_ID      = 2025-275A
CENTER_NAME    = EARTH
REF_FRAME      = TEME
TIME_SYSTEM    = UTC
MEAN_ELEMENT_THEORY = SGP/SGP4

EPOCH          = 2026-03-10T11:33:06.281280
MEAN_MOTION    = 15.48562436
ECCENTRICITY   = .0007951
INCLINATION    = 51.6323
RA_OF_ASC_NODE = 68.4424
ARG_OF_PERICENTER = 177.3714
MEAN_ANOMALY   = 182.7318

EPHEMERIS_TYPE = 0
CLASSIFICATION_TYPE = U
NORAD_CAT_ID   = 66664
ELEMENT_SET_NO = 999
REV_AT_EPOCH   = 55646
BSTAR          = .17349E-3
MEAN_MOTION_DOT = .8982E-4
MEAN_MOTION_DDOT = 0

CCSDS_OMM_VERS = 2.0
CREATION_DATE  = 
ORIGINATOR     = 

OBJECT_NAME    = DUPLEX
OBJECT_ID      = 1998-067XS
CENTER_NAME    = EARTH
REF_FRAME      = TEME
TIME_SYSTEM    = UTC
MEAN_ELEMENT_THEORY = SGP/SGP4

EPOCH          = 2026-03-10T14:43:33.963456
MEAN_MOTION    = 15.56285784
ECCENTRICITY   = .0002504
INCLINATION    = 51.6293
RA_OF_ASC_NODE = 64.8292
ARG_OF_PERICENTER = 116.6687
MEAN_ANOMALY   = 243.4561

EPHEMERIS_TYPE = 0
CLASSIFICATION_TYPE = U
NORAD_CAT_ID   = 66906
ELEMENT_SET_NO = 999
REV_AT_EPOCH   = 1527
BSTAR          = .55126E-3
MEAN_MOTION_DOT = .39211E-3
MEAN_MOTION_DDOT = 0

CCSDS_OMM_VERS = 2.0
CREATION_DATE  = 
ORIGINATOR     = 

OBJECT_NAME    = ISS OBJECT XT
OBJECT_ID      = 1998-067XT
CENTER_NAME    = EARTH
REF_FRAME      = TEME
TIME_SYSTEM    = UTC
MEAN_ELEMENT_THEORY = SGP/SGP4

EPOCH          = 2026-03-10T05:16:15.621600
MEAN_MOTION    = 15.69436118
ECCENTRICITY   = .00047254
INCLINATION    = 51.6253
RA_OF_ASC_NODE = 62.9330
ARG_OF_PERICENTER = 80.8513
MEAN_ANOMALY   = 279.3019

EPHEMERIS_TYPE = 0
CLASSIFICATION_TYPE = U
NORAD_CAT_ID   = 66907
ELEMENT_SET_NO = 999
REV_AT_EPOCH   = 1526
BSTAR          = .1551912E-2
MEAN_MOTION_DOT = .189996E-2
MEAN_MOTION_DDOT = 0

CCSDS_OMM_VERS = 2.0
CREATION_DATE  = 
ORIGINATOR     = 

OBJECT_NAME    = ISS OBJECT XU
OBJECT_ID      = 1998-067XU
CENTER_NAME    = EARTH
REF_FRAME      = TEME
TIME_SYSTEM    = UTC
MEAN_ELEMENT_THEORY = SGP/SGP4

EPOCH          = 2026-03-10T12:52:00.512256
MEAN_MOTION    = 15.69670392
ECCENTRICITY   = .0004878
INCLINATION    = 51.6261
RA_OF_ASC_NODE = 61.2936
ARG_OF_PERICENTER = 85.4529
MEAN_ANOMALY   = 274.7026

EPHEMERIS_TYPE = 0
CLASSIFICATION_TYPE = U
NORAD_CAT_ID   = 66908
ELEMENT_SET_NO = 999
REV_AT_EPOCH   = 1531
BSTAR          = .14388E-2
MEAN_MOTION_DOT = .177562E-2
MEAN_MOTION_DDOT = 0

CCSDS_OMM_VERS = 2.0
CREATION_DATE  = 
ORIGINATOR     = 

OBJECT_NAME    = SILVERSAT
OBJECT_ID      = 1998-067XV
CENTER_NAME    = EARTH
REF_FRAME      = TEME
TIME_SYSTEM    = UTC
MEAN_ELEMENT_THEORY = SGP/SGP4

EPOCH          = 2026-03-10T05:13:58.057248
MEAN_MOTION    = 15.72479555
ECCENTRICITY   = .00054753
INCLINATION    = 51.6252
RA_OF_ASC_NODE = 62.1676
ARG_OF_PERICENTER = 80.1195
MEAN_ANOMALY   = 280.0421

EPHEMERIS_TYPE = 0
CLASSIFICATION_TYPE = U
NORAD_CAT_ID   = 66909
ELEMENT_SET_NO = 999
REV_AT_EPOCH   = 1527
BSTAR          = .17775765E-2
MEAN_MOTION_DOT = .249186E-2
MEAN_MOTION_DDOT = 0

CCSDS_OMM_VERS = 2.0
CREATION_DATE  = 
ORIGINATOR     = 

OBJECT_NAME    = ISS OBJECT XW
OBJECT_ID      = 1998-067XW
CENTER_NAME    = EARTH
REF_FRAME      = TEME
TIME_SYSTEM    = UTC
MEAN_ELEMENT_THEORY = SGP/SGP4

EPOCH          = 2026-03-10T11:16:06.463200
MEAN_MOTION    = 15.68845545
ECCENTRICITY   = .0005289
INCLINATION    = 51.6243
RA_OF_ASC_NODE = 61.5937
ARG_OF_PERICENTER = 91.4427
MEAN_ANOMALY   = 268.7175

EPHEMERIS_TYPE = 0
CLASSIFICATION_TYPE = U
NORAD_CAT_ID   = 66910
ELEMENT_SET_NO = 999
REV_AT_EPOCH   = 1530
BSTAR          = .14095E-2
MEAN_MOTION_DOT = .167916E-2
MEAN_MOTION_DDOT = 0

